STARLINK-30468          
1 57926U 23147P   26068.12699462  .00004329  00000+0  33509-3 0  9997
2 57926  43.0042 329.0906 0000800 274.4003  85.6748 15.02566099136507
SEDNA-1                 
1 60580U 24149DS  26068.76583836  .00008721  00000+0  60834-3 0  9998
2 60580  97.6673 149.7617 0008344 330.8481  29.2278 15.05597965 85421
